{
  "type": "FeatureCollection",
  "features": [
    {
      "type": "Feature",
      "properties": {
        "norad_id": 67019,
        "name": "STARLINK-35688",
        "group": "last-30-days",
        "lat": 60.76125118842485,
        "lon": 60.05856795427396,
        "alt_km": 358.3720619822043,
        "timestamp": "2025-12-27T16:33:28.975360+00:00",
        "meta_object_name": "STARLINK-35688",
        "meta_object_id": "2025-293S",
        "meta_epoch": "2025-12-27T12:00:02.000160",
        "meta_mean_motion": 15.69315831,
        "meta_eccentricity": 0.0003293,
        "meta_inclination": 69.9984,
        "meta_ra_of_asc_node": 281.1892,
        "meta_arg_of_pericenter": 268.851,
        "meta_mean_anomaly": 210.6403,
        "meta_ephemeris_type": 0,
        "meta_classification_type": "U",
        "meta_norad_cat_id": 67019,
        "meta_element_set_no": 999,
        "meta_rev_at_epoch": 267,
        "meta_bstar": -0.016183,
        "meta_mean_motion_dot": -0.01677946,
        "meta_mean_motion_ddot": 0,
        "tle_line1": "1 67019U 25293S   25361.50002315 -.01677946  00000+0 -16183-1 0  9998",
        "tle_line2": "2 67019  69.9984 281.1892 0003293 268.8510 210.6403 15.69315831  2671"
      },
      "geometry": {
        "type": "Point",
        "coordinates": [
          60.05856795427396,
          60.76125118842485
        ]
      }
    },
    {
      "type": "Feature",
      "properties": {
        "norad_id": 67020,
        "name": "STARLINK-36172",
        "group": "last-30-days",
        "lat": 59.01478436191386,
        "lon": 63.30954477701379,
        "alt_km": 358.72332753990577,
        "timestamp": "2025-12-27T16:33:28.975370+00:00",
        "meta_object_name": "STARLINK-36172",
        "meta_object_id": "2025-293T",
        "meta_epoch": "2025-12-27T12:00:02.000160",
        "meta_mean_motion": 15.69279888,
        "meta_eccentricity": 0.000341,
        "meta_inclination": 69.9983,
        "meta_ra_of_asc_node": 281.1864,
        "meta_arg_of_pericenter": 270.4005,
        "meta_mean_anomaly": 211.5004,
        "meta_ephemeris_type": 0,
        "meta_classification_type": "U",
        "meta_norad_cat_id": 67020,
        "meta_element_set_no": 999,
        "meta_rev_at_epoch": 259,
        "meta_bstar": -0.016089,
        "meta_mean_motion_dot": -0.016672,
        "meta_mean_motion_ddot": 0,
        "tle_line1": "1 67020U 25293T   25361.50002315 -.01667200  00000+0 -16089-1 0  9997",
        "tle_line2": "2 67020  69.9983 281.1864 0003410 270.4005 211.5004 15.69279888  2599"
      },
      "geometry": {
        "type": "Point",
        "coordinates": [
          63.30954477701379,
          59.01478436191386
        ]
      }
    },
    {
      "type": "Feature",
      "properties": {
        "norad_id": 67021,
        "name": "STARLINK-36184",
        "group": "last-30-days",
        "lat": 57.281454944670756,
        "lon": 66.11049806563882,
        "alt_km": 358.83913535605825,
        "timestamp": "2025-12-27T16:33:28.975382+00:00",
        "meta_object_name": "STARLINK-36184",
        "meta_object_id": "2025-293U",
        "meta_epoch": "2025-12-27T12:00:02.000160",
        "meta_mean_motion": 15.69260992,
        "meta_eccentricity": 0.0003274,
        "meta_inclination": 69.9984,
        "meta_ra_of_asc_node": 281.1846,
        "meta_arg_of_pericenter": 268.5272,
        "meta_mean_anomaly": 215.6637,
        "meta_ephemeris_type": 0,
        "meta_classification_type": "U",
        "meta_norad_cat_id": 67021,
        "meta_element_set_no": 999,
        "meta_rev_at_epoch": 259,
        "meta_bstar": -0.016174,
        "meta_mean_motion_dot": -0.01673719,
        "meta_mean_motion_ddot": 0,
        "tle_line1": "1 67021U 25293U   25361.50002315 -.01673719  00000+0 -16174-1 0  9995",
        "tle_line2": "2 67021  69.9984 281.1846 0003274 268.5272 215.6637 15.69260992  2596"
      },
      "geometry": {
        "type": "Point",
        "coordinates": [
          66.11049806563882,
          57.281454944670756
        ]
      }
    },
    {
      "type": "Feature",
      "properties": {
        "norad_id": 67022,
        "name": "STARLINK-36209",
        "group": "last-30-days",
        "lat": 55.33784640972328,
        "lon": 68.85797941375901,
        "alt_km": 359.1424158036343,
        "timestamp": "2025-12-27T16:33:28.975392+00:00",
        "meta_object_name": "STARLINK-36209",
        "meta_object_id": "2025-293V",
        "meta_epoch": "2025-12-27T12:00:02.000160",
        "meta_mean_motion": 15.69227213,
        "meta_eccentricity": 0.0003289,
        "meta_inclination": 69.9981,
        "meta_ra_of_asc_node": 281.1816,
        "meta_arg_of_pericenter": 268.4835,
        "meta_mean_anomaly": 218.1983,
        "meta_ephemeris_type": 0,
        "meta_classification_type": "U",
        "meta_norad_cat_id": 67022,
        "meta_element_set_no": 999,
        "meta_rev_at_epoch": 259,
        "meta_bstar": -0.016205,
        "meta_mean_motion_dot": -0.01674445,
        "meta_mean_motion_ddot": 0,
        "tle_line1": "1 67022U 25293V   25361.50002315 -.01674445  00000+0 -16205-1 0  9998",
        "tle_line2": "2 67022  69.9981 281.1816 0003289 268.4835 218.1983 15.69227213  2592"
      },
      "geometry": {
        "type": "Point",
        "coordinates": [
          68.85797941375901,
          55.33784640972328
        ]
      }
    },
    {
      "type": "Feature",
      "properties": {
        "norad_id": 67023,
        "name": "STARLINK-36191",
        "group": "last-30-days",
        "lat": 53.537598165919526,
        "lon": 71.10907890901281,
        "alt_km": 359.43168112819603,
        "timestamp": "2025-12-27T16:33:28.975402+00:00",
        "meta_object_name": "STARLINK-36191",
        "meta_object_id": "2025-293W",
        "meta_epoch": "2025-12-27T12:00:02.000160",
        "meta_mean_motion": 15.69210854,
        "meta_eccentricity": 0.0003404,
        "meta_inclination": 69.9979,
        "meta_ra_of_asc_node": 281.1777,
        "meta_arg_of_pericenter": 267.7486,
        "meta_mean_anomaly": 221.1704,
        "meta_ephemeris_type": 0,
        "meta_classification_type": "U",
        "meta_norad_cat_id": 67023,
        "meta_element_set_no": 999,
        "meta_rev_at_epoch": 248,
        "meta_bstar": -0.016243,
        "meta_mean_motion_dot": -0.01677067,
        "meta_mean_motion_ddot": 0,
        "tle_line1": "1 67023U 25293W   25361.50002315 -.01677067  00000+0 -16243-1 0  9994",
        "tle_line2": "2 67023  69.9979 281.1777 0003404 267.7486 221.1704 15.69210854  2485"
      },
      "geometry": {
        "type": "Point",
        "coordinates": [
          71.10907890901281,
          53.537598165919526
        ]
      }
    },
    {
      "type": "Feature",
      "properties": {
        "norad_id": 67024,
        "name": "STARLINK-36192",
        "group": "last-30-days",
        "lat": 51.57376913965335,
        "lon": 73.30859890469661,
        "alt_km": 359.6399833419364,
        "timestamp": "2025-12-27T16:33:28.975415+00:00",
        "meta_object_name": "STARLINK-36192",
        "meta_object_id": "2025-293X",
        "meta_epoch": "2025-12-27T06:00:02.000160",
        "meta_mean_motion": 15.70057204,
        "meta_eccentricity": 0.0003334,
        "meta_inclination": 69.9977,
        "meta_ra_of_asc_node": 281.8775,
        "meta_arg_of_pericenter": 270.6269,
        "meta_mean_anomaly": 248.4641,
        "meta_ephemeris_type": 0,
        "meta_classification_type": "U",
        "meta_norad_cat_id": 67024,
        "meta_element_set_no": 999,
        "meta_rev_at_epoch": 255,
        "meta_bstar": -0.015113147,
        "meta_mean_motion_dot": -0.0162318,
        "meta_mean_motion_ddot": 0,
        "tle_line1": "1 67024U 25293X   25361.25002315 -.01623180  00000+0 -15113-1 0  9999",
        "tle_line2": "2 67024  69.9977 281.8775 0003334 270.6269 248.4641 15.70057204  2553"
      },
      "geometry": {
        "type": "Point",
        "coordinates": [
          73.30859890469661,
          51.57376913965335
        ]
      }
    },
    {
      "type": "Feature",
      "properties": {
        "norad_id": 67025,
        "name": "STARLINK-36178",
        "group": "last-30-days",
        "lat": 49.77555484085127,
        "lon": 75.12912562430095,
        "alt_km": 359.90172255556445,
        "timestamp": "2025-12-27T16:33:28.975424+00:00",
        "meta_object_name": "STARLINK-36178",
        "meta_object_id": "2025-293Y",
        "meta_epoch": "2025-12-27T12:00:02.000160",
        "meta_mean_motion": 15.69167111,
        "meta_eccentricity": 0.0003248,
        "meta_inclination": 69.9984,
        "meta_ra_of_asc_node": 281.1725,
        "meta_arg_of_pericenter": 268.6177,
        "meta_mean_anomaly": 224.8381,
        "meta_ephemeris_type": 0,
        "meta_classification_type": "U",
        "meta_norad_cat_id": 67025,
        "meta_element_set_no": 999,
        "meta_rev_at_epoch": 259,
        "meta_bstar": -0.016257,
        "meta_mean_motion_dot": -0.01675466,
        "meta_mean_motion_ddot": 0,
        "tle_line1": "1 67025U 25293Y   25361.50002315 -.01675466  00000+0 -16257-1 0  9992",
        "tle_line2": "2 67025  69.9984 281.1725 0003248 268.6177 224.8381 15.69167111  2599"
      },
      "geometry": {
        "type": "Point",
        "coordinates": [
          75.12912562430095,
          49.77555484085127
        ]
      }
    }
  ]
}